{
    "links": {
        "self": "http://www.neowsapp.com/rest/v1/neo/3754268?api_key=iIulBulltgU6a56xZRHN4H3l9WmuAYTsLGpBGhQ2"
    },
    "id": "3754268",
    "neo_reference_id": "3754268",
    "name": "(2016 LV48)",
    "designation": "2016 LV48",
    "nasa_jpl_url": "http://ssd.jpl.nasa.gov/sbdb.cgi?sstr=3754268",
    "absolute_magnitude_h": 20.8,
    "estimated_diameter": {
        "kilometers": {
            "estimated_diameter_min": 0.1838886721,
            "estimated_diameter_max": 0.411187571
        },
        "meters": {
            "estimated_diameter_min": 183.8886720703,
            "estimated_diameter_max": 411.1875710413
        },
        "miles": {
            "estimated_diameter_min": 0.1142630881,
            "estimated_diameter_max": 0.2555000322
        },
        "feet": {
            "estimated_diameter_min": 603.309310875,
            "estimated_diameter_max": 1349.040630575
        }
    },
    "is_potentially_hazardous_asteroid": false,
    "close_approach_data": [
        {
            "close_approach_date": "2009-12-06",
            "close_approach_date_full": "2009-Dec-06 11:37",
            "epoch_date_close_approach": 1260099420000,
            "relative_velocity": {
                "kilometers_per_second": "22.2550191885",
                "kilometers_per_hour": "80118.0690786508",
                "miles_per_hour": "49782.2524227872"
            },
            "miss_distance": {
                "astronomical": "0.3153028573",
                "lunar": "122.6528114897",
                "kilometers": "47168635.856993951",
                "miles": "29309231.2344244838"
            },
            "orbiting_body": "Earth"
        },
        {
            "close_approach_date": "2016-04-30",
            "close_approach_date_full": "2016-Apr-30 00:25",
            "epoch_date_close_approach": 1461975900000,
            "relative_velocity": {
                "kilometers_per_second": "18.8561788919",
                "kilometers_per_hour": "67882.2440107504",
                "miles_per_hour": "42179.3865632354"
            },
            "miss_distance": {
                "astronomical": "0.3085367544",
                "lunar": "120.0207974616",
                "kilometers": "46156441.274953128",
                "miles": "28680282.6858760464"
            },
            "orbiting_body": "Earth"
        }
    ],
    "orbital_data": {
        "orbit_id": "10",
        "orbit_determination_date": "2017-04-06 08:25:20",
        "first_observation_date": "2016-06-08",
        "last_observation_date": "2016-07-02",
        "data_arc_in_days": 24,
        "observations_used": 40,
        "orbit_uncertainty": "7",
        "minimum_orbit_intersection": ".300892",
        "jupiter_tisserand_invariant": "3.314",
        "epoch_osculation": "2459000.5",
        "eccentricity": ".700691110377976",
        "semi_major_axis": "2.125772248084825",
        "inclination": "18.22185113811991",
        "ascending_node_longitude": "158.719433060269",
        "orbital_period": "1132.070637997094",
        "perihelion_distance": ".6362625311635827",
        "perihelion_argument": "357.1001981460884",
        "aphelion_distance": "3.615281965006067",
        "perihelion_time": "2458607.720488354169",
        "mean_anomaly": "124.9044180164154",
        "mean_motion": ".3180013577924138",
        "equinox": "J2000",
        "orbit_class": {
            "orbit_class_type": "APO",
            "orbit_class_description": "Near-Earth asteroid orbits which cross the Earth’s orbit similar to that of 1862 Apollo",
            "orbit_class_range": "a (semi-major axis) > 1.0 AU; q (perihelion) < 1.017 AU"
        }
    },
    "is_sentry_object": false
}